[{"OBJECT_NAME":"ONEWEB-0544","OBJECT_ID":"2023-004E","EPOCH":"2026-03-09T20:02:14.945280","MEAN_MOTION":13.18686496,"ECCENTRICITY":0.00019858,"INCLINATION":87.9242,"RA_OF_ASC_NODE":355.2086,"ARG_OF_PERICENTER":83.3143,"MEAN_ANOMALY":276.8215,"EPHEMERIS_TYPE":0,"CLASSIFICATION_TYPE":"U","NORAD_CAT_ID":55144,"ELEMENT_SET_NO":999,"REV_AT_EPOCH":15660,"BSTAR":-3.6204802e-5,"MEAN_MOTION_DOT":-1.0e-8,"MEAN_MOTION_DDOT":0},{"OBJECT_NAME":"COSMOS 1275 DEB","OBJECT_ID":"1981-053RC","EPOCH":"2026-03-08T02:17:11.079168","MEAN_MOTION":13.50009854,"ECCENTRICITY":0.01973466,"INCLINATION":83.1416,"RA_OF_ASC_NODE":193.3235,"ARG_OF_PERICENTER":107.3279,"MEAN_ANOMALY":254.9556,"EPHEMERIS_TYPE":0,"CLASSIFICATION_TYPE":"U","NORAD_CAT_ID":42140,"ELEMENT_SET_NO":999,"REV_AT_EPOCH":57188,"BSTAR":0.00069469474,"MEAN_MOTION_DOT":5.15e-6,"MEAN_MOTION_DDOT":0}]
